[
    {
        "name": "NOAA 15",
        "first tle line": "1 25338U 98030A   25221.60319080  .00000232  00000+0  11301-3 0  9995",
        "second tle line": "2 25338  98.5337 245.2603 0010377 174.0585 186.0721 14.27009438416855"
    },
    {
        "name": "NOAA 18",
        "first tle line": "1 28654U 05018A   25221.56359503  .00000109  00000+0  81226-4 0  9999",
        "second tle line": "2 28654  98.8405 300.3495 0013423 319.7490  40.2688 14.13625476 42284"
    },
    {
        "name": "NOAA 19",
        "first tle line": "1 33591U 09005A   25221.50910024  .00000172  00000+0  11576-3 0  9990",
        "second tle line": "2 33591  98.9938 286.5453 0013698 187.3505 172.7468 14.13394168850455"
    },
    {
        "name": "NOAA 20 (JPSS-1)",
        "first tle line": "1 43013U 17073A   25221.52697879  .00000068  00000+0  52933-4 0  9993",
        "second tle line": "2 43013  98.7415 159.3212 0002058  94.3214 265.8197 14.19550741400254"
    },
    {
        "name": "NOAA 21 (JPSS-2)",
        "first tle line": "1 54234U 22150A   25221.56297800  .00000066  00000+0  52008-4 0  9997",
        "second tle line": "2 54234  98.7277 159.5583 0002043  33.4616 326.6689 14.19549282142336"
    },
    {
        "name": "METEOR-M 2",
        "first tle line": "1 40069U 14037A   25221.58483657  .00000143  00000+0  84598-4 0  9997",
        "second tle line": "2 40069  98.4726 204.0644 0004945 212.2750 147.8125 14.21317041575052"
    },
    {
        "name": "METEOR-M2 2",
        "first tle line": "1 44387U 19038A   25221.54817177  .00000077  00000+0  53017-4 0  9992",
        "second tle line": "2 44387  98.8793 199.8431 0001367 144.9345 215.1923 14.24222716316930"
    }
]